{
    "CCSDS_OMM_VERS": "3.0",
    "COMMENT": "GENERATED VIA SPACE-TRACK.ORG API",
    "CREATION_DATE": "2025-11-23T21:08:43",
    "ORIGINATOR": "18 SPCS",
    "OBJECT_NAME": "COSMOS 2471 (GLONASS)",
    "OBJECT_ID": "2011-009A",
    "CENTER_NAME": "EARTH",
    "REF_FRAME": "TEME",
    "TIME_SYSTEM": "UTC",
    "MEAN_ELEMENT_THEORY": "SGP4",
    "EPOCH": "2025-11-23T02:52:28.127136",
    "MEAN_MOTION": "2.12911393",
    "ECCENTRICITY": "0.00094489",
    "INCLINATION": "65.5281",
    "RA_OF_ASC_NODE": "321.4472",
    "ARG_OF_PERICENTER": "319.9338",
    "MEAN_ANOMALY": "120.4519",
    "EPHEMERIS_TYPE": "0",
    "CLASSIFICATION_TYPE": "U",
    "NORAD_CAT_ID": "37372",
    "ELEMENT_SET_NO": "999",
    "REV_AT_EPOCH": "11469",
    "BSTAR": "0.00000000000000",
    "MEAN_MOTION_DOT": "-0.00000032",
    "MEAN_MOTION_DDOT": "0.0000000000000",
    "SEMIMAJOR_AXIS": "25523.246",
    "PERIOD": "676.338",
    "APOAPSIS": "19169.228",
    "PERIAPSIS": "19120.994",
    "OBJECT_TYPE": "PAYLOAD",
    "RCS_SIZE": "LARGE",
    "COUNTRY_CODE": "CIS",
    "LAUNCH_DATE": "2011-02-26",
    "SITE": "PKMTR",
    "DECAY_DATE": null,
    "FILE": "4896238",
    "GP_ID": "303329824",
    "TLE_LINE0": "0 COSMOS 2471 (GLONASS)",
    "TLE_LINE1": "1 37372U 11009A   25327.11976999 -.00000032  00000-0  00000-0 0  9999",
    "TLE_LINE2": "2 37372  65.5281 321.4472 0009449 319.9338 120.4519  2.12911393114690"
}